[{"OBJECT_NAME":"STARLINK-32330","OBJECT_ID":"2024-202F","EPOCH":"2026-03-09T12:07:55.818624","MEAN_MOTION":15.2757175,"ECCENTRICITY":0.00015872,"INCLINATION":42.9996,"RA_OF_ASC_NODE":238.6698,"ARG_OF_PERICENTER":280.5602,"MEAN_ANOMALY":79.507,"EPHEMERIS_TYPE":0,"CLASSIFICATION_TYPE":"U","NORAD_CAT_ID":61850,"ELEMENT_SET_NO":999,"REV_AT_EPOCH":7531,"BSTAR":1.8173231e-5,"MEAN_MOTION_DOT":2.38e-6,"MEAN_MOTION_DDOT":0},{"OBJECT_NAME":"TEVEL2-1","OBJECT_ID":"2025-052H","EPOCH":"2026-03-09T15:32:51.927072","MEAN_MOTION":15.30341923,"ECCENTRICITY":0.0004767,"INCLINATION":97.3991,"RA_OF_ASC_NODE":324.7682,"ARG_OF_PERICENTER":104.8919,"MEAN_ANOMALY":255.2849,"EPHEMERIS_TYPE":0,"CLASSIFICATION_TYPE":"U","NORAD_CAT_ID":63217,"ELEMENT_SET_NO":999,"REV_AT_EPOCH":5485,"BSTAR":0.000706,"MEAN_MOTION_DOT":0.00020683,"MEAN_MOTION_DDOT":0}]
