STARLINK-32330          
1 61850U 24202F   26068.50550716  .00000238  00000+0  18173-4 0  9997
2 61850  42.9996 238.6698 0001587 280.5602  79.5070 15.27571750 75311
TEVEL2-1                
1 63217U 25052H   26068.64782323  .00020683  00000+0  70600-3 0  9994
2 63217  97.3991 324.7682 0004767 104.8919 255.2849 15.30341923 54855
